{"fetched_at":"2026-07-21T17:53:31.607Z","source":"https://celestrak.org/NORAD/elements/gp.php?NAME=HULIANWANG&FORMAT=JSON","constellation":"guowang","records":[{"OBJECT_NAME":"HULIANWANG DIGUI-12","OBJECT_ID":"2025-030B","EPOCH":"2026-07-21T05:23:47.789952","CLASSIFICATION_TYPE":"U","MEAN_MOTION":13.29322561,"ECCENTRICITY":0.00008621,"INCLINATION":50.0022,"RA_OF_ASC_NODE":113.8726,"ARG_OF_PERICENTER":290.6162,"MEAN_ANOMALY":69.4618,"EPHEMERIS_TYPE":0,"NORAD_CAT_ID":62972,"ELEMENT_SET_NO":999,"REV_AT_EPOCH":7038,"BSTAR":0.000064064666,"MEAN_MOTION_DOT":-9.4e-7,"MEAN_MOTION_DDOT":0},{"OBJECT_NAME":"HULIANWANG DIGUI-13","OBJECT_ID":"2025-030C","EPOCH":"2026-07-21T04:59:35.685888","CLASSIFICATION_TYPE":"U","MEAN_MOTION":13.29324582,"ECCENTRICITY":0.00006959,"INCLINATION":50.0025,"RA_OF_ASC_NODE":113.8008,"ARG_OF_PERICENTER":292.3627,"MEAN_ANOMALY":67.7171,"EPHEMERIS_TYPE":0,"NORAD_CAT_ID":62973,"ELEMENT_SET_NO":999,"REV_AT_EPOCH":7038,"BSTAR":0.000043243701,"MEAN_MOTION_DOT":-0.00000104,"MEAN_MOTION_DDOT":0},{"OBJECT_NAME":"HULIANWANG DIGUI-14","OBJECT_ID":"2025-030D","EPOCH":"2026-07-21T04:23:34.822752","CLASSIFICATION_TYPE":"U","MEAN_MOTION":13.29327733,"ECCENTRICITY":0.00007034,"INCLINATION":50.003,"RA_OF_ASC_NODE":113.6937,"ARG_OF_PERICENTER":297.06,"MEAN_ANOMALY":63.0201,"EPHEMERIS_TYPE":0,"NORAD_CAT_ID":62974,"ELEMENT_SET_NO":999,"REV_AT_EPOCH":7038,"BSTAR":0.000080135309,"MEAN_MOTION_DOT":-8.7e-7,"MEAN_MOTION_DDOT":0},{"OBJECT_NAME":"HULIANWANG DIGUI-15","OBJECT_ID":"2025-030E","EPOCH":"2026-07-21T04:47:36.176928","CLASSIFICATION_TYPE":"U","MEAN_MOTION":13.29324635,"ECCENTRICITY":0.00007817,"INCLINATION":50.0026,"RA_OF_ASC_NODE":113.7604,"ARG_OF_PERICENTER":296.1804,"MEAN_ANOMALY":63.8988,"EPHEMERIS_TYPE":0,"NORAD_CAT_ID":62975,"ELEMENT_SET_NO":999,"REV_AT_EPOCH":7038,"BSTAR":0.000064629868,"MEAN_MOTION_DOT":-9.4e-7,"MEAN_MOTION_DDOT":0},{"OBJECT_NAME":"HULIANWANG DIGUI-16","OBJECT_ID":"2025-030F","EPOCH":"2026-07-21T05:59:56.058432","CLASSIFICATION_TYPE":"U","MEAN_MOTION":13.29325903,"ECCENTRICITY":0.00006655,"INCLINATION":50.0048,"RA_OF_ASC_NODE":113.4516,"ARG_OF_PERICENTER":295.5876,"MEAN_ANOMALY":64.4927,"EPHEMERIS_TYPE":0,"NORAD_CAT_ID":62976,"ELEMENT_SET_NO":999,"REV_AT_EPOCH":7039,"BSTAR":0.00009021861,"MEAN_MOTION_DOT":-8.2e-7,"MEAN_MOTION_DDOT":0},{"OBJECT_NAME":"HULIANWANG DIGUI-17","OBJECT_ID":"2025-030G","EPOCH":"2026-07-21T05:47:45.730464","CLASSIFICATION_TYPE":"U","MEAN_MOTION":13.29326001,"ECCENTRICITY":0.00007758,"INCLINATION":50.006,"RA_OF_ASC_NODE":113.4598,"ARG_OF_PERICENTER":286.4783,"MEAN_ANOMALY":73.6004,"EPHEMERIS_TYPE":0,"NORAD_CAT_ID":62977,"ELEMENT_SET_NO":999,"REV_AT_EPOCH":7039,"BSTAR":0.000076708777,"MEAN_MOTION_DOT":-8.8e-7,"MEAN_MOTION_DDOT":0},{"OBJECT_NAME":"HULIANWANG DIGUI-18","OBJECT_ID":"2025-030H","EPOCH":"2026-07-21T05:35:41.720928","CLASSIFICATION_TYPE":"U","MEAN_MOTION":13.29327913,"ECCENTRICITY":0.00008054,"INCLINATION":50.0065,"RA_OF_ASC_NODE":113.431,"ARG_OF_PERICENTER":284.9938,"MEAN_ANOMALY":75.0845,"EPHEMERIS_TYPE":0,"NORAD_CAT_ID":62978,"ELEMENT_SET_NO":999,"REV_AT_EPOCH":7039,"BSTAR":0.000056318017,"MEAN_MOTION_DOT":-9.8e-7,"MEAN_MOTION_DDOT":0},{"OBJECT_NAME":"HULIANWANG DIGUI-19","OBJECT_ID":"2025-030J","EPOCH":"2026-07-21T04:35:47.402304","CLASSIFICATION_TYPE":"U","MEAN_MOTION":13.29319228,"ECCENTRICITY":0.00007006,"INCLINATION":50.005,"RA_OF_ASC_NODE":113.8161,"ARG_OF_PERICENTER":285.1426,"MEAN_ANOMALY":74.9369,"EPHEMERIS_TYPE":0,"NORAD_CAT_ID":62979,"ELEMENT_SET_NO":999,"REV_AT_EPOCH":7038,"BSTAR":0.000065403281,"MEAN_MOTION_DOT":-9.4e-7,"MEAN_MOTION_DDOT":0},{"OBJECT_NAME":"HULIANWANG DIGUI-20","OBJECT_ID":"2025-086A","EPOCH":"2026-07-21T05:57:18.103680","CLASSIFICATION_TYPE":"U","MEAN_MOTION":13.24411825,"ECCENTRICITY":0.00021483,"INCLINATION":86.5066,"RA_OF_ASC_NODE":301.6619,"ARG_OF_PERICENTER":110.829,"MEAN_ANOMALY":249.3074,"EPHEMERIS_TYPE":0,"NORAD_CAT_ID":63687,"ELEMENT_SET_NO":999,"REV_AT_EPOCH":5938,"BSTAR":0.000031633745,"MEAN_MOTION_DOT":2.8e-7,"MEAN_MOTION_DDOT":0},{"OBJECT_NAME":"HULIANWANG DIGUI-21","OBJECT_ID":"2025-086B","EPOCH":"2026-07-21T06:08:13.835616","CLASSIFICATION_TYPE":"U","MEAN_MOTION":13.24410531,"ECCENTRICITY":0.0002104,"INCLINATION":86.5094,"RA_OF_ASC_NODE":301.7263,"ARG_OF_PERICENTER":114.1457,"MEAN_ANOMALY":245.9897,"EPHEMERIS_TYPE":0,"NORAD_CAT_ID":63688,"ELEMENT_SET_NO":999,"REV_AT_EPOCH":5937,"BSTAR":0.000044265652,"MEAN_MOTION_DOT":3.4e-7,"MEAN_MOTION_DDOT":0},{"OBJECT_NAME":"HULIANWANG DIGUI-22","OBJECT_ID":"2025-086C","EPOCH":"2026-07-21T06:19:03.514368","CLASSIFICATION_TYPE":"U","MEAN_MOTION":13.24410845,"ECCENTRICITY":0.00021877,"INCLINATION":86.5059,"RA_OF_ASC_NODE":301.5803,"ARG_OF_PERICENTER":110.1326,"MEAN_ANOMALY":250.0044,"EPHEMERIS_TYPE":0,"NORAD_CAT_ID":63689,"ELEMENT_SET_NO":999,"REV_AT_EPOCH":5937,"BSTAR":0.000025786934,"MEAN_MOTION_DOT":2.6e-7,"MEAN_MOTION_DDOT":0},{"OBJECT_NAME":"HULIANWANG DIGUI-23","OBJECT_ID":"2025-086D","EPOCH":"2026-07-21T06:40:46.994880","CLASSIFICATION_TYPE":"U","MEAN_MOTION":13.2441057,"ECCENTRICITY":0.00021608,"INCLINATION":86.51,"RA_OF_ASC_NODE":301.7673,"ARG_OF_PERICENTER":110.78,"MEAN_ANOMALY":249.3566,"EPHEMERIS_TYPE":0,"NORAD_CAT_ID":63690,"ELEMENT_SET_NO":999,"REV_AT_EPOCH":5937,"BSTAR":0.000030948992,"MEAN_MOTION_DOT":2.8e-7,"MEAN_MOTION_DDOT":0},{"OBJECT_NAME":"HULIANWANG DIGUI-24","OBJECT_ID":"2025-086E","EPOCH":"2026-07-21T06:51:42.598944","CLASSIFICATION_TYPE":"U","MEAN_MOTION":13.24411224,"ECCENTRICITY":0.00021407,"INCLINATION":86.5107,"RA_OF_ASC_NODE":301.8004,"ARG_OF_PERICENTER":113.213,"MEAN_ANOMALY":246.923,"EPHEMERIS_TYPE":0,"NORAD_CAT_ID":63691,"ELEMENT_SET_NO":999,"REV_AT_EPOCH":5937,"BSTAR":0.000048759772,"MEAN_MOTION_DOT":3.6e-7,"MEAN_MOTION_DDOT":0},{"OBJECT_NAME":"HULIANWANG DIGUI-25","OBJECT_ID":"2025-086F","EPOCH":"2026-07-21T07:02:35.559168","CLASSIFICATION_TYPE":"U","MEAN_MOTION":13.24410577,"ECCENTRICITY":0.00020812,"INCLINATION":86.5045,"RA_OF_ASC_NODE":301.5382,"ARG_OF_PERICENTER":111.234,"MEAN_ANOMALY":248.9017,"EPHEMERIS_TYPE":0,"NORAD_CAT_ID":63692,"ELEMENT_SET_NO":999,"REV_AT_EPOCH":5937,"BSTAR":0.000075061613,"MEAN_MOTION_DOT":4.7e-7,"MEAN_MOTION_DDOT":0},{"OBJECT_NAME":"HULIANWANG DIGUI-26","OBJECT_ID":"2025-086G","EPOCH":"2026-07-21T06:29:54.877056","CLASSIFICATION_TYPE":"U","MEAN_MOTION":13.24409594,"ECCENTRICITY":0.00023244,"INCLINATION":86.5094,"RA_OF_ASC_NODE":301.737,"ARG_OF_PERICENTER":115.3052,"MEAN_ANOMALY":244.8323,"EPHEMERIS_TYPE":0,"NORAD_CAT_ID":63693,"ELEMENT_SET_NO":999,"REV_AT_EPOCH":5937,"BSTAR":6.7328e-8,"MEAN_MOTION_DOT":1.5e-7,"MEAN_MOTION_DDOT":0},{"OBJECT_NAME":"HULIANWANG DIGUI-27","OBJECT_ID":"2025-086H","EPOCH":"2026-07-21T07:13:25.313088","CLASSIFICATION_TYPE":"U","MEAN_MOTION":13.2441244,"ECCENTRICITY":0.00021472,"INCLINATION":86.5055,"RA_OF_ASC_NODE":301.5827,"ARG_OF_PERICENTER":112.2656,"MEAN_ANOMALY":247.8706,"EPHEMERIS_TYPE":0,"NORAD_CAT_ID":63694,"ELEMENT_SET_NO":999,"REV_AT_EPOCH":5937,"BSTAR":0.00010331192,"MEAN_MOTION_DOT":5.9e-7,"MEAN_MOTION_DDOT":0}]}
