HULIANWANG DIGUI-12     
1 62972U 25030B   26202.22485868 -.00000094  00000+0  64065-4 0  9999
2 62972  50.0022 113.8726 0000862 290.6162  69.4618 13.29322561 70383
HULIANWANG DIGUI-13     
1 62973U 25030C   26202.20805192 -.00000104  00000+0  43244-4 0  9992
2 62973  50.0025 113.8008 0000695 292.3627  67.7171 13.29324582 70389
HULIANWANG DIGUI-14     
1 62974U 25030D   26202.18304193 -.00000087  00000+0  80135-4 0  9995
2 62974  50.0030 113.6937 0000703 297.0600  63.0201 13.29327733 70382
HULIANWANG DIGUI-15     
1 62975U 25030E   26202.19972427 -.00000094  00000+0  64630-4 0  9998
2 62975  50.0026 113.7604 0000781 296.1804  63.8988 13.29324635 70380
HULIANWANG DIGUI-16     
1 62976U 25030F   26202.24995438 -.00000082  00000+0  90219-4 0  9991
2 62976  50.0048 113.4516 0000665 295.5876  64.4927 13.29325903 70397
HULIANWANG DIGUI-17     
1 62977U 25030G   26202.24150151 -.00000088  00000+0  76709-4 0  9991
2 62977  50.0060 113.4598 0000775 286.4783  73.6004 13.29326001 70398
HULIANWANG DIGUI-18     
1 62978U 25030H   26202.23312177 -.00000098  00000+0  56318-4 0  9994
2 62978  50.0065 113.4310 0000805 284.9938  75.0845 13.29327913 70397
HULIANWANG DIGUI-19     
1 62979U 25030J   26202.19152086 -.00000094  00000+0  65403-4 0  9992
2 62979  50.0050 113.8161 0000700 285.1426  74.9369 13.29319228 70387
HULIANWANG DIGUI-20     
1 63687U 25086A   26202.24812620  .00000028  00000+0  31634-4 0  9998
2 63687  86.5066 301.6619 0002148 110.8290 249.3074 13.24411825 59380
HULIANWANG DIGUI-21     
1 63688U 25086B   26202.25571569  .00000034  00000+0  44266-4 0  9996
2 63688  86.5094 301.7263 0002104 114.1457 245.9897 13.24410531 59379
HULIANWANG DIGUI-22     
1 63689U 25086C   26202.26323512  .00000026  00000+0  25787-4 0  9999
2 63689  86.5059 301.5803 0002187 110.1326 250.0044 13.24410845 59370
HULIANWANG DIGUI-23     
1 63690U 25086D   26202.27832170  .00000028  00000+0  30949-4 0  9995
2 63690  86.5100 301.7673 0002160 110.7800 249.3566 13.24410570 59375
HULIANWANG DIGUI-24     
1 63691U 25086E   26202.28590971  .00000036  00000+0  48760-4 0  9996
2 63691  86.5107 301.8004 0002140 113.2130 246.9230 13.24411224 59372
HULIANWANG DIGUI-25     
1 63692U 25086F   26202.29346712  .00000047  00000+0  75062-4 0  9997
2 63692  86.5045 301.5382 0002081 111.2340 248.9017 13.24410577 59370
HULIANWANG DIGUI-26     
1 63693U 25086G   26202.27077404  .00000015  00000+0  67328-7 0  9999
2 63693  86.5094 301.7370 0002324 115.3052 244.8323 13.24409594 59371
HULIANWANG DIGUI-27     
1 63694U 25086H   26202.30098742  .00000059  00000+0  10331-3 0  9998
2 63694  86.5055 301.5827 0002147 112.2656 247.8706 13.24412440 59375
